{"jobNumber":"CC518748220J40309362412","navigationList":[{"text":"首页","link":"https://www.zhaopin.com","type":1,"isNew":false,"current":false,"id":"index","icon":""},{"text":"城市频道","link":"//www.zhaopin.com/citymap","type":2,"isNew":false,"current":false,"isUnRead":false,"id":"citymap","icon":""},{"text":"政府单位招聘","link":"https://govjob.zhaopin.com","type":3,"isNew":false,"current":false,"id":"govservice","icon":""},{"text":"校园招聘","link":"//xiaoyuan.zhaopin.com","type":4,"isNew":false,"current":false,"icon":"","id":"xiaoyuan"},{"text":"高端职位","link":"https://highpin.zhaopin.com/?fromType=1132","type":5,"isNew":false,"current":false,"id":"highpin","icon":""},{"text":"海外招聘","link":"https://overseas.zhaopin.com","type":6,"isNew":false,"current":false,"id":"overseas","icon":""},{"text":"智联人才发展中心","link":"https://td.zhaopin.com","type":7,"isNew":false,"current":false,"id":"td","icon":""},{"text":"职Q社区","link":"//zq.zhaopin.com?utm_source=%E9%A6%96%E9%A1%B5&utm_medium=button&utm_campaign=&utm_term=&utm_content=","type":8,"isNew":false,"current":false,"id":"zq","icon":""}],"reportData":{"srccode":"","srcid":"","traceid":"","refcode":"","eptReason":"","actionid":"f16d3332-b109-48a3-9a34-f1fc2083f8a1","funczone":402001,"sid":""},"passportWidgetAppId":"f0ab0377c3b04abc957cdd38b8d003a2","passportWidgetRefer":"121126445","user":{"baseInfo":{"name":"","id":null,"cityDistrictId":null,"cityName":null,"cityId":null},"resumes":{},"isPageOpen":false,"userCityPage":{},"ipCity":null},"jobInfo":{"jobSummary":{},"jobDetail":{"detailedCompany":{"auditNature":null,"companyLogo":"https://storage-public.zhaopin.cn/CompanyLogo/20150817/B7543E759A8F4215AE15A8914AD08558.jpg","videoUrl":"","financingStageName":"已上市","companyName":"北京卓华信息技术股份有限公司","companyNumber":"CZ518748220","menVipUrl":"","menVipLevel":0,"industryNameLevel":"计算机软件,计算机硬件,IT服务,互联网","companySize":"20-99人","companyDescription":"北京卓华信息技术股份有限公司成立于2009年5月，是一家专注于物联网信息技术应用的高科技企业。公司是中关村海淀科技园区的“双软”及高新技术企业。2014年8月21日成功登陆全国中小企业股份转让系统（新三板），证券简称卓华信息，证券代码831030，股份总额为6246万股。 卓华信息发展目标：成为公安信息化行业的领导者，为社会的稳定发展做出贡献！ 关于卓华： 平台优势： 1、新三板创新层TOP100上市公司，2009年成立。 2、致力于物联网技术和理念在警务信息与指挥系统中的应用； 3、为公共安全行业提供基于物联网技术的信息采集、传递、分析、处理和应用的警务信息系统； 4、利用物联网和云计算技术建立自动化的指挥体系，为客户提供先进的、有机的和整体化的警务信息与指挥系统整体解决方案及优秀产品； 3、建立先进的业务咨询与服务体系，以及全国性的技术支撑体系，创立和打造“卓华”服务品牌，使其最终成为中国警务信息与指挥领域的领导者。 企业文化：务实、高效、创新、负责任、有良知！ 人才战略：卓华信息以企业文化为指引，以塑造“有能力”“有梦想”“敢拼搏”的员工为公司人才培养方向。 薪资福利： 1. 高于市场平均薪酬水平的薪资。我们一直抱着想让员工过更好的生活的心，会随着公司的盈利状况的增长给予员工回报。 2. 福利：做五休二，每天工作7个半小时，下午茶，爱心晚餐，法定节假日，五险一金，补充医疗，免费体检，团建、节日福利等。 3.公司保留股权给核心骨干人才，发展空间大。 4.可为符合政策条件员工办理北京市工作居住证和人才引进。 同事关系： 1. 公司高层，都有强大的行业/技术背景，且有着爱护员工的心。 2. 各部门的负责人，都有着培养下属的工作习惯，会与你相处愉快且能有力帮助你成长。 3. 我们所有同事，都真诚、努力且优秀。 环境优势： 公司位置在上地软件园二期，办公环境舒适。 地铁路线------地铁西二旗换乘通勤车或公交。 公交路线------公交205，909，963,509，982,447,446 公司官网：http://www.accellence.com.cn/ 凡有意者，请直接投递简历至公司匹配职位或将相关简历资料邮寄至本公司，来函请注明联系电话，公司将尽快发出面试通知，未录用材料存于公司人才信息库，恕不退还。公司竭诚欢迎广大有志之士的加盟！","companyUrl":"http://company.zhaopin.com/CZ518748220.htm","bestEmployerType":0,"bestEmployerLabel":[],"industryLevel":"计算机软件,计算机硬件,IT服务,互联网","url":"http://company.zhaopin.com/CZ518748220.htm"},"detailedPosition":{"welfareLabel":[{"state":0,"value":"五险一金"},{"state":0,"value":"年底双薪"},{"state":0,"value":"周末双休"},{"state":0,"value":"弹性工作"}],"workType":"全职","tradingArea":"","subJobType":"315","positionStatus":3,"skillLabel":[{"state":0,"value":"系统运维"}],"jobDesc":"<div>  为用户提供驻场运维服务，驻场地点为北京市朝阳区轨道安保中心，日常驻场时间为：工作日9:00-17:30 或 10:00-18:30。</div><div>  工作内容：对视频会议系统、网络、音视频系统等进行现场维护。</div><div>  职位要求：</div><div>  1、具有通信、电子工程、自动化、计算机等相关专业大专及以上学历或相关工作经历优先；</div><div>  2、具有良好的沟通能力和学习能力；</div><div>  3、具有良好的服务意识和工作态度；</div><div>  4、具有良好的团队精神，工作认真，服从公司工作安排；</div><div>  5、需能够适应国家法定节假日值班工作安排；</div><div>  6、应届毕业生优先。</div>","workAddress":"轨道交通安保中心","latitude":"39.92779","longitude":"116.620128","positionPublishTime":"2022-07-12 10:11:27","education":"大专","positionUrl":"http://jobs.zhaopin.com/CC518748220J40309362412.htm","applyType":"1","salary60":"3千-6千","positionWorkingExp":"无经验","positionCityId":"530","positionWorkCity":"北京","recruitNumber":1,"salaryCount":"","performanceBonus":"","positionNumber":"CC518748220J40309362412","positionName":"驻场运维工程师","positionCityDistrict":"朝阳区","positionCommercialLabel":[],"chatWindow":1,"hasAppliedPosition":false,"positionHighlight":"工作环境和谐、应届无经验优先、鼓励学习","jobTypeLevelName":"运维支持","rpoProxied":false,"rpoProxy":false,"rpoProxyDisplayOrgName":"","salaryType":1,"salaryReal":"3001-6000","internshipMonths":0,"weeklyInternshipDays":0,"canBeRegular":false,"provideInternshipCertificate":false,"canRemoteInternship":false,"futureJob":false,"futureJobUrl":"","bestEmployerType":0,"bestEmployerLabel":[],"companyName":"北京卓华信息技术股份有限公司","companyNumber":"CZ518748220","menVipUrl":"","menVipLevel":0,"jobDescPC":"<div>  为用户提供驻场运维服务，驻场地点为北京市朝阳区轨道安保中心，日常驻场时间为：工作日9:00-17:30 或 10:00-18:30。</div><div>  工作内容：对视频会议系统、网络、音视频系统等进行现场维护。</div><div>  职位要求：</div><div>  1、具有通信、电子工程、自动化、计算机等相关专业大专及以上学历或相关工作经历优先；</div><div>  2、具有良好的沟通能力和学习能力；</div><div>  3、具有良好的服务意识和工作态度；</div><div>  4、具有良好的团队精神，工作认真，服从公司工作安排；</div><div>  5、需能够适应国家法定节假日值班工作安排；</div><div>  6、应届毕业生优先。</div>","emplType":"全职","jobStatus":3,"publishTime":"2022-07-12 10:11:27","workingExp":"无经验","cityId":"530","workCity":"北京","number":"CC518748220J40309362412","name":"驻场运维工程师","cityDistrict":"朝阳区","staff":{"authenticationState":1,"avatar":"https://rd5-public.zhaopin.cn/imgs/avatar_m3.png","greeting":"","greetingHasDelivery":"","hrJob":"技术经理","hrOnlineIocState":0,"hrOnlineState":"昨日活跃","hrResumeOperationState":"","id":1121597038,"modularState":1,"staffName":"杜先生","state":1},"url":"//www.zhaopin.com/beijing/","emailListPc":"http://jobs.zhaopin.com/CC518748220J40309362412.htm","entryModel":{"companyAddress":"","companyName":"","companySize":"","state":0}},"taskId":"5af8d6148a6f4fd9ab461ecbb6d1dd7d"},"jobPublisher":{},"jobNumber":""},"jobSimilar":{"jobSimilarList":[],"jobCount":0,"method":"","methodGroup":"","methodReportData":{"traceid":"","method":"","methodGroup":""}},"recommendData":{"hotCity":[{"code":"530","pinyin":"beijing","name":"北京","url":"https://jobs.zhaopin.com/beijing/"},{"code":"538","pinyin":"shanghai","name":"上海","url":"https://jobs.zhaopin.com/shanghai/"},{"code":"765","pinyin":"shenzhen","name":"深圳","url":"https://jobs.zhaopin.com/shenzhen/"},{"code":"763","pinyin":"guangzhou","name":"广州","url":"https://jobs.zhaopin.com/guangzhou/"},{"code":"531","pinyin":"tianjin","name":"天津","url":"https://jobs.zhaopin.com/tianjin/"},{"code":"801","pinyin":"chengdu","name":"成都","url":"https://jobs.zhaopin.com/chengdu/"},{"code":"653","pinyin":"hangzhou","name":"杭州","url":"https://jobs.zhaopin.com/hangzhou/"},{"code":"736","pinyin":"wuhan","name":"武汉","url":"https://jobs.zhaopin.com/wuhan/"},{"code":"600","pinyin":"dalian","name":"大连","url":"https://jobs.zhaopin.com/dalian/"},{"code":"613","pinyin":"changchun","name":"长春","url":"https://jobs.zhaopin.com/changchun/"},{"code":"635","pinyin":"nanjing","name":"南京","url":"https://jobs.zhaopin.com/nanjing/"},{"code":"702","pinyin":"jinan","name":"济南","url":"https://jobs.zhaopin.com/jinan/"},{"code":"703","pinyin":"qingdao","name":"青岛","url":"https://jobs.zhaopin.com/qingdao/"},{"code":"639","pinyin":"suzhou","name":"苏州","url":"https://jobs.zhaopin.com/suzhou/"},{"code":"599","pinyin":"shenyang","name":"沈阳","url":"https://jobs.zhaopin.com/shenyang/"},{"code":"854","pinyin":"xian","name":"西安","url":"https://jobs.zhaopin.com/xian/"},{"code":"719","pinyin":"zhengzhou","name":"郑州","url":"https://jobs.zhaopin.com/zhengzhou/"},{"code":"749","pinyin":"changsha","name":"长沙","url":"https://jobs.zhaopin.com/changsha/"},{"code":"551","pinyin":"chongqing","name":"重庆","url":"https://jobs.zhaopin.com/chongqing/"},{"code":"622","pinyin":"haerbin","name":"哈尔滨","url":"https://jobs.zhaopin.com/haerbin/"},{"code":"636","pinyin":"wuxi","name":"无锡","url":"https://jobs.zhaopin.com/wuxi/"},{"code":"654","pinyin":"ningbo","name":"宁波","url":"https://jobs.zhaopin.com/ningbo/"},{"code":"681","pinyin":"fuzhou","name":"福州","url":"https://jobs.zhaopin.com/fuzhou/"},{"code":"682","pinyin":"xiamen","name":"厦门","url":"https://jobs.zhaopin.com/xiamen/"},{"code":"565","pinyin":"shijiazhuang","name":"石家庄","url":"https://jobs.zhaopin.com/shijiazhuang/"},{"code":"664","pinyin":"hefei","name":"合肥","url":"https://jobs.zhaopin.com/hefei/"},{"code":"773","pinyin":"huizhou","name":"惠州","url":"https://jobs.zhaopin.com/huizhou/"},{"code":"576","pinyin":"taiyuan","name":"太原","url":"https://jobs.zhaopin.com/taiyuan/"},{"code":"691","pinyin":"nanchang","name":"南昌","url":"https://jobs.zhaopin.com/nanchang/"},{"code":"831","pinyin":"kunming","name":"昆明","url":"https://jobs.zhaopin.com/kunming/"}],"jobType":[{"label":"工程资料管理","intKey":7000200120000,"value":"7000200120000","parent":"7000200000000","pinyin":"gongchengziliaoguanli","qk":"sj704","children":[],"root":"7000000000000","name":"工程资料管理","url":"https://jobs.zhaopin.com/sj704/"},{"label":"仓库文员","intKey":2000200040000,"value":"2000200040000","parent":"2000200000000","pinyin":"cangkuwenyuan","qk":"mj257","children":[],"root":"2000000000000","name":"仓库文员","url":"https://jobs.zhaopin.com/mj257/"},{"label":"电商售后服务","intKey":13000100030000,"value":"13000100030000","parent":"13000100000000","pinyin":"dianshangshouhoufuwu","qk":"sj2234","children":[],"root":"13000000000000","name":"电商售后服务","url":"https://jobs.zhaopin.com/sj2234/"},{"label":"编剧","intKey":4000300020000,"value":"4000300020000","parent":"4000300000000","pinyin":"bianju","qk":"sj4019","children":[],"root":"4000000000000","name":"编剧","url":"https://jobs.zhaopin.com/sj4019/"},{"label":"水利/水电工程师","intKey":7000300420000,"value":"7000300420000","parent":"7000300000000","pinyin":"shuili/shuidiangongchengshi","qk":"sj617","children":[],"root":"7000000000000","name":"水利/水电工程师","url":"https://jobs.zhaopin.com/sj617/"},{"label":"零部件设计","intKey":15000300300000,"value":"15000300300000","parent":"15000300000000","pinyin":"lingbujiansheji","qk":"mj174","children":[],"root":"15000000000000","name":"零部件设计","url":"https://jobs.zhaopin.com/mj174/"},{"label":"车床/磨床/铣床/冲床工","intKey":15000100070000,"value":"15000100070000","parent":"15000100000000","pinyin":"chechuang/mochuang/xianchuang/chongchuanggong","qk":"sj339","children":[],"root":"15000000000000","name":"车床/磨床/铣床/冲床工","url":"https://jobs.zhaopin.com/sj339/"},{"label":"管培生/培训生","intKey":8000100030000,"value":"8000100030000","parent":"8000100000000","pinyin":"guanpeisheng/peixunsheng","qk":"sj302","children":[],"root":"8000000000000","name":"管培生/培训生","url":"https://jobs.zhaopin.com/sj302/"},{"label":"信息披露专员","intKey":14000700150000,"value":"14000700150000","parent":"14000700000000","pinyin":"xinxipiluzhuanyuan","qk":"mj14","children":[],"root":"14000000000000","name":"信息披露专员","url":"https://jobs.zhaopin.com/mj14/"},{"label":"工程造价/预结算","intKey":7000200110000,"value":"7000200110000","parent":"7000200000000","pinyin":"gongchengzaojia/yujiesuan","qk":"sj102","children":[],"root":"7000000000000","name":"工程造价/预结算","url":"https://jobs.zhaopin.com/sj102/"},{"label":"供应商/采购质量管理","intKey":2000100050000,"value":"2000100050000","parent":"2000100000000","pinyin":"gongyingshang/caigouzhiliangguanli","qk":"sj330","children":[],"root":"2000000000000","name":"供应商/采购质量管理","url":"https://jobs.zhaopin.com/sj330/"},{"label":"城市经理","intKey":19000300010000,"value":"19000300010000","parent":"19000300000000","pinyin":"chengshijingli","qk":"mj8","children":[],"root":"19000000000000","name":"城市经理","url":"https://jobs.zhaopin.com/mj8/"},{"label":"政府关系","intKey":16000300130000,"value":"16000300130000","parent":"16000300000000","pinyin":"zhengfuguanxi","qk":"sj768","children":[],"root":"16000000000000","name":"政府关系","url":"https://jobs.zhaopin.com/sj768/"},{"label":"工会","intKey":14000600020000,"value":"14000600020000","parent":"14000600000000","pinyin":"gonghui","qk":"sj4017","children":[],"root":"14000000000000","name":"工会","url":"https://jobs.zhaopin.com/sj4017/"},{"label":"网页设计制作","intKey":17000500130000,"value":"17000500130000","parent":"17000500000000","pinyin":"wangyeshejizhizuo","qk":"sj054","children":[],"root":"17000000000000","name":"网页设计制作","url":"https://jobs.zhaopin.com/sj054/"},{"label":"设计管理人员","intKey":17000500190000,"value":"17000500190000","parent":"17000500000000","pinyin":"shejiguanlirenyuan","qk":"sj364","children":[],"root":"17000000000000","name":"设计管理人员","url":"https://jobs.zhaopin.com/sj364/"},{"label":"钳工/机修工/钣金工","intKey":15000100300000,"value":"15000100300000","parent":"15000100000000","pinyin":"qiangong/jixiugong/banjingong","qk":"sj338","children":[],"root":"15000000000000","name":"钳工/机修工/钣金工","url":"https://jobs.zhaopin.com/sj338/"},{"label":"工程总监","intKey":7000200130000,"value":"7000200130000","parent":"7000200000000","pinyin":"gongchengzongjian","qk":"sj2024","children":[],"root":"7000000000000","name":"工程总监","url":"https://jobs.zhaopin.com/sj2024/"},{"label":"光网络工程师","intKey":9000500280000,"value":"9000500280000","parent":"9000500000000","pinyin":"guangwangluogongchengshi","qk":"mj62","children":[],"root":"9000000000000","name":"光网络工程师","url":"https://jobs.zhaopin.com/mj62/"},{"label":"软件测试培训讲师","intKey":11000100150000,"value":"11000100150000","parent":"11000100000000","pinyin":"ruanjianceshipeixunjiangshi","qk":"mj494","children":[],"root":"11000000000000","name":"软件测试培训讲师","url":"https://jobs.zhaopin.com/mj494/"},{"label":"亲子老师","intKey":11000800040000,"value":"11000800040000","parent":"11000800000000","pinyin":"qinzilaoshi","qk":"mj447","children":[],"root":"11000000000000","name":"亲子老师","url":"https://jobs.zhaopin.com/mj447/"},{"label":"汽车喷漆","intKey":6001100070000,"value":"6001100070000","parent":"6001100000000","pinyin":"qichepenqi","qk":"mj322","children":[],"root":"6000000000000","name":"汽车喷漆","url":"https://jobs.zhaopin.com/mj322/"},{"label":"VIP专员","intKey":13000100010000,"value":"13000100010000","parent":"13000100000000","pinyin":"VIPzhuanyuan","qk":"sj2147","children":[],"root":"13000000000000","name":"VIP专员","url":"https://jobs.zhaopin.com/sj2147/"},{"label":"客服专员","intKey":13000100100000,"value":"13000100100000","parent":"13000100000000","pinyin":"kefuzhuanyuan","qk":"sj257","children":[],"root":"13000000000000","name":"客服专员","url":"https://jobs.zhaopin.com/sj257/"},{"label":"岩土工程","intKey":7000300490000,"value":"7000300490000","parent":"7000300000000","pinyin":"yantugongcheng","qk":"sj707","children":[],"root":"7000000000000","name":"岩土工程","url":"https://jobs.zhaopin.com/sj707/"},{"label":"品牌专员","intKey":16000500130000,"value":"16000500130000","parent":"16000500000000","pinyin":"pinpaizhuanyuan","qk":"sj170","children":[],"root":"16000000000000","name":"品牌专员","url":"https://jobs.zhaopin.com/sj170/"},{"label":"配送交接员","intKey":2000400040000,"value":"2000400040000","parent":"2000400000000","pinyin":"peisongjiaojieyuan","qk":"mj251","children":[],"root":"2000000000000","name":"配送交接员","url":"https://jobs.zhaopin.com/mj251/"},{"label":"铸造/锻造工程师/技师","intKey":15000300560000,"value":"15000300560000","parent":"15000300000000","pinyin":"zhuzao/duanzaogongchengshi/jishi","qk":"sj590","children":[],"root":"15000000000000","name":"铸造/锻造工程师/技师","url":"https://jobs.zhaopin.com/sj590/"},{"label":"酒店试睡员","intKey":6000900030000,"value":"6000900030000","parent":"6000900000000","pinyin":"jiudianshishuiyuan","qk":"sj2224","children":[],"root":"6000000000000","name":"酒店试睡员","url":"https://jobs.zhaopin.com/sj2224/"},{"label":"幼儿启蒙老师","intKey":11000800060000,"value":"11000800060000","parent":"11000800000000","pinyin":"youerqimenglaoshi","qk":"sj8003","children":[],"root":"11000000000000","name":"幼儿启蒙老师","url":"https://jobs.zhaopin.com/sj8003/"}],"companyList":[{"companyName":"恒大集团有限公司","url":"http://company.zhaopin.com/CZ135999430.htm","cityName":"深圳","name":"恒大集团有限公司"},{"companyName":"无锡先导智能装备股份有限公司","url":"http://company.zhaopin.com/CZ166275810.htm","cityName":"无锡","name":"无锡先导智能装备股份有限公司"},{"companyName":"北京麦田房产经纪有限公司","url":"http://company.zhaopin.com/CZ133216770.htm","cityName":"北京","name":"北京麦田房产经纪有限公司"},{"companyName":"普信恒业科技发展（北京）有限公司","url":"http://company.zhaopin.com/CC371111518.htm","cityName":"北京","name":"普信恒业科技发展（北京）有限公司"},{"companyName":"亚士创能科技（上海）股份有限公司","url":"http://company.zhaopin.com/CZ468881510.htm","cityName":"上海","name":"亚士创能科技（上海）股份有限公司"},{"companyName":"武汉佰钧成技术有限责任公司","url":"http://company.zhaopin.com/%E6%AD%A6%E6%B1%89%E4%BD%B0%E9%92%A7%E6%88%90%E6%8A%80%E6%9C%AF%E6%9C%89%E9%99%90%E8%B4%A3%E4%BB%BB%E5%85%AC%E5%8F%B8_CC364485728.htm","cityName":"武汉","name":"武汉佰钧成技术有限责任公司"},{"companyName":"江苏恒瑞医药股份有限公司","url":"http://company.zhaopin.com/CZ120989510.htm","cityName":"连云港","name":"江苏恒瑞医药股份有限公司"},{"companyName":"锐捷网络股份有限公司","url":"www.ruijie.com.cn","cityName":"北京","name":"锐捷网络股份有限公司"},{"companyName":"上海华振物流有限公司","url":"https://company.zhaopin.com/CC323903810.htm","cityName":"上海","name":"上海华振物流有限公司"},{"companyName":"山东先大健康产业股份有限公司","url":"http://special.zhaopin.com/jn/2013/11151/sdxd062666","cityName":"济南","name":"山东先大健康产业股份有限公司"},{"companyName":"山东星宏电讯有限责任公司","url":"http://company.zhaopin.com/CZ209462310.htm","cityName":"济南","name":"山东星宏电讯有限责任公司"},{"companyName":"上海精锐教育培训有限公司","url":"http://company.zhaopin.com/CZ173698110.htm","cityName":"上海","name":"上海精锐教育培训有限公司"},{"companyName":"厦门千时科技有限公司","url":"http://special.zhaopin.com/2018/xm/1111040/xmqs030633","cityName":"厦门","name":"厦门千时科技有限公司"},{"companyName":"锦创科技股份有限公司","url":"http://company.zhaopin.com/CZ120917160.htm","cityName":"南京","name":"锦创科技股份有限公司"},{"companyName":"浙江舜宇光学有限公司","url":"http://special.zhaopin.com/2017/nb/11025/zjsy041782","cityName":"宁波","name":"浙江舜宇光学有限公司"},{"companyName":"健帆生物科技集团股份有限公司","url":"http://company.zhaopin.com/CZ141251540.htm","cityName":"珠海","name":"健帆生物科技集团股份有限公司"},{"companyName":"华测检测认证集团股份有限公司","url":"http://company.zhaopin.com/CZ136731340.htm","cityName":"深圳","name":"华测检测认证集团股份有限公司"},{"companyName":"福建恒安集团有限公司","url":"http://company.zhaopin.com/CZ000405330.htm","cityName":"泉州","name":"福建恒安集团有限公司"},{"companyName":"四川链家房地产经纪有限公司","url":"http://special.zhaopin.com/2018/cd/sclj020745","cityName":"成都","name":"四川链家房地产经纪有限公司"},{"companyName":"碧桂园智慧物业服务集团股份有限公司","url":"http://company.zhaopin.com/CZ577299820.htm","cityName":"佛山","name":"碧桂园智慧物业服务集团股份有限公司"},{"companyName":"大族激光科技产业集团股份有限公司","url":"http://special.zhaopin.com/pagepublish/34155/index.html","cityName":"深圳","name":"大族激光科技产业集团股份有限公司"},{"companyName":"中科软科技股份有限公司","url":"http://company.zhaopin.com/CZ120160390.htm","cityName":"北京","name":"中科软科技股份有限公司"},{"companyName":"上海永升物业管理有限公司","url":"http://special.zhaopin.com/2018/sh/11143/shys011252","cityName":"上海","name":"上海永升物业管理有限公司"},{"companyName":"江苏中南建设集团股份有限公司","url":"http://company.zhaopin.com/CZ244636020.htm","cityName":"南通","name":"江苏中南建设集团股份有限公司"},{"companyName":"中科创达软件股份有限公司","url":"http://special.zhaopin.com/pagepublish/28545121/index.html","cityName":"北京","name":"中科创达软件股份有限公司"},{"companyName":"辽宁忠旺集团有限公司","url":"http://company.zhaopin.com/CZ120562710.htm","cityName":"辽阳","name":"辽宁忠旺集团有限公司"},{"companyName":"华为技术有限公司","url":"http://company.zhaopin.com/CC000542945.htm","cityName":"深圳","name":"华为技术有限公司"},{"companyName":"威高集团有限公司","url":"http://company.zhaopin.com/CZ000616790.htm","cityName":"威海","name":"威高集团有限公司"},{"companyName":"广西东呈酒店管理有限公司","url":"http://special.zhaopin.com/2017/gz/11153/gxdc030321","cityName":"南宁","name":"广西东呈酒店管理有限公司"},{"companyName":"三棵树涂料股份有限公司","url":"http://company.zhaopin.com/CZ155695310.htm","cityName":"莆田","name":"三棵树涂料股份有限公司"}]}}