{"jobNumber": "CCL1390748420J40291027912", "navigationList": [{"text": "\u9996\u9875", "link": "https://www.zhaopin.com", "type": 1, "isNew": false, "current": false, "id": "index", "icon": ""}, {"text": "\u57ce\u5e02\u9891\u9053", "link": "//www.zhaopin.com/citymap", "type": 2, "isNew": false, "current": false, "isUnRead": false, "id": "citymap", "icon": ""}, {"text": "\u653f\u5e9c\u5355\u4f4d\u62db\u8058", "link": "https://govjob.zhaopin.com", "type": 3, "isNew": false, "current": false, "id": "govservice", "icon": ""}, {"text": "\u6821\u56ed\u62db\u8058", "link": "//xiaoyuan.zhaopin.com", "type": 4, "isNew": false, "current": false, "icon": "", "id": "xiaoyuan"}, {"text": "\u9ad8\u7aef\u804c\u4f4d", "link": "https://highpin.zhaopin.com/?fromType=1132", "type": 5, "isNew": false, "current": false, "id": "highpin", "icon": ""}, {"text": "\u6d77\u5916\u62db\u8058", "link": "https://overseas.zhaopin.com", "type": 6, "isNew": false, "current": false, "id": "overseas", "icon": ""}, {"text": "\u667a\u8054\u4eba\u624d\u53d1\u5c55\u4e2d\u5fc3", "link": "https://td.zhaopin.com", "type": 7, "isNew": false, "current": false, "id": "td", "icon": ""}, {"text": "\u804cQ\u793e\u533a", "link": "//zq.zhaopin.com?utm_source=%E9%A6%96%E9%A1%B5&utm_medium=button&utm_campaign=&utm_term=&utm_content=", "type": 8, "isNew": false, "current": false, "id": "zq", "icon": ""}], "reportData": {"srccode": "", "srcid": "", "traceid": "", "refcode": "", "eptReason": "", "actionid": "c8e6d400-b10f-4c26-ab62-b5efd00536ac", "funczone": 402001, "sid": ""}, "passportWidgetAppId": "f0ab0377c3b04abc957cdd38b8d003a2", "passportWidgetRefer": "121126445", "user": {"baseInfo": {"name": "", "id": null, "cityDistrictId": null, "cityName": null, "cityId": null}, "resumes": {}, "isPageOpen": false, "userCityPage": {}, "ipCity": null}, "jobInfo": {"jobSummary": {}, "jobDetail": {"detailedCompany": {"auditNature": null, "companyLogo": "http://img09.zhaopin.com/2012/other/mobile/mi/companyLogo/03/default.png", "videoUrl": "", "financingStageName": "", "companyName": "\u56db\u5ddd\u4e1c\u5347\u7eff\u80fd\u79d1\u6280\u6709\u9650\u516c\u53f8", "companyNumber": "CZL1390748420", "menVipUrl": "", "menVipLevel": 0, "industryNameLevel": "\u4e92\u8054\u7f51", "companySize": "20-99\u4eba", "companyDescription": "", "companyUrl": "http://company.zhaopin.com/CZL1390748420.htm", "bestEmployerType": 0, "bestEmployerLabel": [], "industryLevel": "\u4e92\u8054\u7f51", "url": "http://company.zhaopin.com/CZL1390748420.htm"}, "detailedPosition": {"welfareLabel": [{"state": 0, "value": "\u5f39\u6027\u5de5\u4f5c"}], "workType": "\u5168\u804c", "tradingArea": "", "subJobType": "2214", "positionStatus": 3, "skillLabel": [{"state": 0, "value": "\u77ed\u9014\u8d27\u8fd0"}, {"state": 0, "value": "\u7f51\u7ea6\u8f66\u53f8\u673a"}, {"state": 0, "value": "\u9762\u5305\u8f66\u53f8\u673a"}, {"state": 0, "value": "\u5c0f\u8f66\u53f8\u673a"}, {"state": 0, "value": "\u9001\u8d27\u53f8\u673a"}], "jobDesc": "\u8981\u6c42\uff1a22-46\u5c81\uff0c\u6709\u9a7e\u7167\uff0c\u53ef\u5b89\u5168\u4e0a\u8def\u884c\u9a76\uff1b\u957f\u671f\u7a33\u5b9a\uff0c\u517c\u804c\u52ff\u6270\uff01<br>\u6210\u90fd\u533a\u57df\u5747\u53ef\u5c31\u8fd1\u5b89\u6392\uff0c<br>\u8d1f\u8d23\u6210\u90fd\u5e02\u5185\u5f00\u9762\u5305\u8f66\u751f\u9c9c\u3001\u6c34\u679c\u852c\u83dc\u3001\u65e5\u7528\u767e\u8d27\u7684\u914d\u9001\uff0c<br>\u9700\u8981\u81ea\u5df1\u4e0a\u4e0b\u8d27\uff0c<br>\u6bcf\u5929\u7efc\u5408\u6536\u5165400-600\u3001\u6bcf\u6708\u5e73\u5747\u6536\u5165\u57281.2W\u5de6\u53f3\uff0c<br>\u5e78\u82e6\u884c\u4e1a\uff0c\u975e\u8bda\u52ff\u6270", "workAddress": "\u56db\u5ddd\u7701\u6210\u90fd\u5e02\u9f99\u6cc9\u9a7f\u533a4\u53f7\u7ebf", "latitude": "30.645829", "longitude": "104.172438", "positionPublishTime": "2022-07-20 11:31:11", "education": "\u4e0d\u9650", "positionUrl": "http://jobs.zhaopin.com/CCL1390748420J40291027912.htm", "applyType": "1", "salary60": "9\u5343-1.5\u4e07", "positionWorkingExp": "\u65e0\u7ecf\u9a8c", "positionCityId": "801", "positionWorkCity": "\u6210\u90fd", "recruitNumber": 1, "salaryCount": "", "performanceBonus": "", "positionNumber": "CCL1390748420J40291027912", "positionName": "\u5e93\u623f\u6025\u9700\u9001\u8d27\u5e08\u5085\u6709\u9a7e\u7167\u7684\u5c31\u6765", "positionCityDistrict": "", "positionCommercialLabel": [], "chatWindow": 1, "hasAppliedPosition": false, "positionHighlight": "", "jobTypeLevelName": "\u4ea4\u901a\u8fd0\u8f93", "rpoProxied": false, "rpoProxy": false, "rpoProxyDisplayOrgName": "", "salaryType": 1, "salaryReal": "9001-15000", "internshipMonths": 0, "weeklyInternshipDays": 0, "canBeRegular": false, "provideInternshipCertificate": false, "canRemoteInternship": false, "futureJob": false, "futureJobUrl": "", "bestEmployerType": 0, "bestEmployerLabel": [], "companyName": "\u56db\u5ddd\u4e1c\u5347\u7eff\u80fd\u79d1\u6280\u6709\u9650\u516c\u53f8", "companyNumber": "CZL1390748420", "menVipUrl": "", "menVipLevel": 0, "jobDescPC": "\u8981\u6c42\uff1a22-46\u5c81\uff0c\u6709\u9a7e\u7167\uff0c\u53ef\u5b89\u5168\u4e0a\u8def\u884c\u9a76\uff1b\u957f\u671f\u7a33\u5b9a\uff0c\u517c\u804c\u52ff\u6270\uff01<br>\u6210\u90fd\u533a\u57df\u5747\u53ef\u5c31\u8fd1\u5b89\u6392\uff0c<br>\u8d1f\u8d23\u6210\u90fd\u5e02\u5185\u5f00\u9762\u5305\u8f66\u751f\u9c9c\u3001\u6c34\u679c\u852c\u83dc\u3001\u65e5\u7528\u767e\u8d27\u7684\u914d\u9001\uff0c<br>\u9700\u8981\u81ea\u5df1\u4e0a\u4e0b\u8d27\uff0c<br>\u6bcf\u5929\u7efc\u5408\u6536\u5165400-600\u3001\u6bcf\u6708\u5e73\u5747\u6536\u5165\u57281.2W\u5de6\u53f3\uff0c<br>\u5e78\u82e6\u884c\u4e1a\uff0c\u975e\u8bda\u52ff\u6270", "emplType": "\u5168\u804c", "jobStatus": 3, "publishTime": "2022-07-20 11:31:11", "workingExp": "\u65e0\u7ecf\u9a8c", "cityId": "801", "workCity": "\u6210\u90fd", "number": "CCL1390748420J40291027912", "name": "\u5e93\u623f\u6025\u9700\u9001\u8d27\u5e08\u5085\u6709\u9a7e\u7167\u7684\u5c31\u6765", "cityDistrict": "", "staff": {"authenticationState": 1, "avatar": "https://rd5-public.zhaopin.cn/imgs/avatar_m1.png", "greeting": "", "greetingHasDelivery": "", "hrJob": "\u4eba\u4e8b\u4e13\u5458", "hrOnlineIocState": 0, "hrOnlineState": "\u4e09\u65e5\u5185\u6d3b\u8dc3", "hrResumeOperationState": "", "id": 1138142128, "modularState": 1, "staffName": "\u8d75\u5148\u751f", "state": 1}, "url": "//www.zhaopin.com/chengdu/", "emailListPc": "http://jobs.zhaopin.com/CCL1390748420J40291027912.htm", "entryModel": {"companyAddress": "", "companyName": "", "companySize": "", "state": 0}}, "taskId": "a1379398f1924475b387aa0153d7bc74"}, "jobPublisher": {}, "jobNumber": ""}, "jobSimilar": {"jobSimilarList": [], "jobCount": 0, "method": "", "methodGroup": "", "methodReportData": {"traceid": "", "method": "", "methodGroup": ""}}, "recommendData": {"hotCity": [{"code": "530", "pinyin": "beijing", "name": "\u5317\u4eac", "url": "https://jobs.zhaopin.com/beijing/"}, {"code": "538", "pinyin": "shanghai", "name": "\u4e0a\u6d77", "url": "https://jobs.zhaopin.com/shanghai/"}, {"code": "765", "pinyin": "shenzhen", "name": "\u6df1\u5733", "url": "https://jobs.zhaopin.com/shenzhen/"}, {"code": "763", "pinyin": "guangzhou", "name": "\u5e7f\u5dde", "url": "https://jobs.zhaopin.com/guangzhou/"}, {"code": "531", "pinyin": "tianjin", "name": "\u5929\u6d25", "url": "https://jobs.zhaopin.com/tianjin/"}, {"code": "801", "pinyin": "chengdu", "name": "\u6210\u90fd", "url": "https://jobs.zhaopin.com/chengdu/"}, {"code": "653", "pinyin": "hangzhou", "name": "\u676d\u5dde", "url": "https://jobs.zhaopin.com/hangzhou/"}, {"code": "736", "pinyin": "wuhan", "name": "\u6b66\u6c49", "url": "https://jobs.zhaopin.com/wuhan/"}, {"code": "600", "pinyin": "dalian", "name": "\u5927\u8fde", "url": "https://jobs.zhaopin.com/dalian/"}, {"code": "613", "pinyin": "changchun", "name": "\u957f\u6625", "url": "https://jobs.zhaopin.com/changchun/"}, {"code": "635", "pinyin": "nanjing", "name": "\u5357\u4eac", "url": "https://jobs.zhaopin.com/nanjing/"}, {"code": "702", "pinyin": "jinan", "name": "\u6d4e\u5357", "url": "https://jobs.zhaopin.com/jinan/"}, {"code": "703", "pinyin": "qingdao", "name": "\u9752\u5c9b", "url": "https://jobs.zhaopin.com/qingdao/"}, {"code": "639", "pinyin": "suzhou", "name": "\u82cf\u5dde", "url": "https://jobs.zhaopin.com/suzhou/"}, {"code": "599", "pinyin": "shenyang", "name": "\u6c88\u9633", "url": "https://jobs.zhaopin.com/shenyang/"}, {"code": "854", "pinyin": "xian", "name": "\u897f\u5b89", "url": "https://jobs.zhaopin.com/xian/"}, {"code": "719", "pinyin": "zhengzhou", "name": "\u90d1\u5dde", "url": "https://jobs.zhaopin.com/zhengzhou/"}, {"code": "749", "pinyin": "changsha", "name": "\u957f\u6c99", "url": "https://jobs.zhaopin.com/changsha/"}, {"code": "551", "pinyin": "chongqing", "name": "\u91cd\u5e86", "url": "https://jobs.zhaopin.com/chongqing/"}, {"code": "622", "pinyin": "haerbin", "name": "\u54c8\u5c14\u6ee8", "url": "https://jobs.zhaopin.com/haerbin/"}, {"code": "636", "pinyin": "wuxi", "name": "\u65e0\u9521", "url": "https://jobs.zhaopin.com/wuxi/"}, {"code": "654", "pinyin": "ningbo", "name": "\u5b81\u6ce2", "url": "https://jobs.zhaopin.com/ningbo/"}, {"code": "681", "pinyin": "fuzhou", "name": "\u798f\u5dde", "url": "https://jobs.zhaopin.com/fuzhou/"}, {"code": "682", "pinyin": "xiamen", "name": "\u53a6\u95e8", "url": "https://jobs.zhaopin.com/xiamen/"}, {"code": "565", "pinyin": "shijiazhuang", "name": "\u77f3\u5bb6\u5e84", "url": "https://jobs.zhaopin.com/shijiazhuang/"}, {"code": "664", "pinyin": "hefei", "name": "\u5408\u80a5", "url": "https://jobs.zhaopin.com/hefei/"}, {"code": "773", "pinyin": "huizhou", "name": "\u60e0\u5dde", "url": "https://jobs.zhaopin.com/huizhou/"}, {"code": "576", "pinyin": "taiyuan", "name": "\u592a\u539f", "url": "https://jobs.zhaopin.com/taiyuan/"}, {"code": "691", "pinyin": "nanchang", "name": "\u5357\u660c", "url": "https://jobs.zhaopin.com/nanchang/"}, {"code": "831", "pinyin": "kunming", "name": "\u6606\u660e", "url": "https://jobs.zhaopin.com/kunming/"}], "jobType": [{"label": "\u5e02\u653f\u5de5\u7a0b", "intKey": 7000300380000, "value": "7000300380000", "parent": "7000300000000", "pinyin": "shizhenggongcheng", "qk": "sj562", "children": [], "root": "7000000000000", "name": "\u5e02\u653f\u5de5\u7a0b", "url": "https://jobs.zhaopin.com/sj562/"}, {"label": "\u5236\u9020\u5de5\u7a0b\u5e08", "intKey": 15000300540000, "value": "15000300540000", "parent": "15000300000000", "pinyin": "zhizaogongchengshi", "qk": "sj075", "children": [], "root": "15000000000000", "name": "\u5236\u9020\u5de5\u7a0b\u5e08", "url": "https://jobs.zhaopin.com/sj075/"}, {"label": "\u7ad9\u957f", "intKey": 5000400070000, "value": "5000400070000", "parent": "5000400000000", "pinyin": "zhanzhang", "qk": "mj197", "children": [], "root": "5000000000000", "name": "\u7ad9\u957f", "url": "https://jobs.zhaopin.com/mj197/"}, {"label": "\u5370\u67d3\u5de5", "intKey": 15000100450000, "value": "15000100450000", "parent": "15000100000000", "pinyin": "yinrangong", "qk": "sj2244", "children": [], "root": "15000000000000", "name": "\u5370\u67d3\u5de5", "url": "https://jobs.zhaopin.com/sj2244/"}, {"label": "\u5e02\u573a\u7ecf\u7406", "intKey": 16000500170000, "value": "16000500170000", "parent": "16000500000000", "pinyin": "shichangjingli", "qk": "sj600", "children": [], "root": "16000000000000", "name": "\u5e02\u573a\u7ecf\u7406", "url": "https://jobs.zhaopin.com/sj600/"}, {"label": "\u7f51\u7edc\u5de5\u7a0b\u5e08", "intKey": 20000200190000, "value": "20000200190000", "parent": "20000200000000", "pinyin": "wangluogongchengshi", "qk": "sj055", "children": [], "root": "20000000000000", "name": "\u7f51\u7edc\u5de5\u7a0b\u5e08", "url": "https://jobs.zhaopin.com/sj055/"}, {"label": "\u8f6f\u4ef6\u552e\u540e\u5de5\u7a0b\u5e08", "intKey": 13000200050000, "value": "13000200050000", "parent": "13000200000000", "pinyin": "ruanjianshouhougongchengshi", "qk": "sj5004", "children": [], "root": "13000000000000", "name": "\u8f6f\u4ef6\u552e\u540e\u5de5\u7a0b\u5e08", "url": "https://jobs.zhaopin.com/sj5004/"}, {"label": "\u5185\u5bb9\u8fd0\u8425", "intKey": 5000200020000, "value": "5000200020000", "parent": "5000200000000", "pinyin": "neirongyunying", "qk": "sj2062", "children": [], "root": "5000000000000", "name": "\u5185\u5bb9\u8fd0\u8425", "url": "https://jobs.zhaopin.com/sj2062/"}, {"label": "\u6c7d\u8f66\u8d34\u819c", "intKey": 6001100080000, "value": "6001100080000", "parent": "6001100000000", "pinyin": "qichetiemo", "qk": "mj323", "children": [], "root": "6000000000000", "name": "\u6c7d\u8f66\u8d34\u819c", "url": "https://jobs.zhaopin.com/mj323/"}, {"label": "\u8425\u9500\u7b56\u5212", "intKey": 16000100100000, "value": "16000100100000", "parent": "16000100000000", "pinyin": "yingxiaocehua", "qk": "mj354", "children": [], "root": "16000000000000", "name": "\u8425\u9500\u7b56\u5212", "url": "https://jobs.zhaopin.com/mj354/"}, {"label": "\u6c14\u52a8\u5de5\u7a0b\u5e08", "intKey": 15000300350000, "value": "15000300350000", "parent": "15000300000000", "pinyin": "qidonggongchengshi", "qk": "sj587", "children": [], "root": "15000000000000", "name": "\u6c14\u52a8\u5de5\u7a0b\u5e08", "url": "https://jobs.zhaopin.com/sj587/"}, {"label": "\u5de5\u7a0b\u9020\u4ef7/\u9884\u7ed3\u7b97", "intKey": 7000200110000, "value": "7000200110000", "parent": "7000200000000", "pinyin": "gongchengzaojia/yujiesuan", "qk": "sj102", "children": [], "root": "7000000000000", "name": "\u5de5\u7a0b\u9020\u4ef7/\u9884\u7ed3\u7b97", "url": "https://jobs.zhaopin.com/sj102/"}, {"label": "\u4fdd\u5b89", "intKey": 6000100030000, "value": "6000100030000", "parent": "6000100000000", "pinyin": "baoan", "qk": "sj104", "children": [], "root": "6000000000000", "name": "\u4fdd\u5b89", "url": "https://jobs.zhaopin.com/sj104/"}, {"label": "\u5de5\u7a0b\u7ecf\u7406", "intKey": 7000200100000, "value": "7000200100000", "parent": "7000200000000", "pinyin": "gongchengjingli", "qk": "mj381", "children": [], "root": "7000000000000", "name": "\u5de5\u7a0b\u7ecf\u7406", "url": "https://jobs.zhaopin.com/mj381/"}, {"label": "\u610f\u5927\u5229\u8bed\u7ffb\u8bd1", "intKey": 1000200110000, "value": "1000200110000", "parent": "1000200000000", "pinyin": "yidaliyufanyi", "qk": "sj631", "children": [], "root": "1000000000000", "name": "\u610f\u5927\u5229\u8bed\u7ffb\u8bd1", "url": "https://jobs.zhaopin.com/sj631/"}, {"label": "\u4e70\u624b", "intKey": 2000100060000, "value": "2000100060000", "parent": "2000100000000", "pinyin": "maishou", "qk": "sj664", "children": [], "root": "2000000000000", "name": "\u4e70\u624b", "url": "https://jobs.zhaopin.com/sj664/"}, {"label": "\u5e02\u573a\u7b56\u5212\u4e13\u5458", "intKey": 16000500160000, "value": "16000500160000", "parent": "16000500000000", "pinyin": "shichangcehuazhuanyuan", "qk": "sj605", "children": [], "root": "16000000000000", "name": "\u5e02\u573a\u7b56\u5212\u4e13\u5458", "url": "https://jobs.zhaopin.com/sj605/"}, {"label": "\u6298\u5f2f\u5de5", "intKey": 15000100490000, "value": "15000100490000", "parent": "15000100000000", "pinyin": "zhewangong", "qk": "mj155", "children": [], "root": "15000000000000", "name": "\u6298\u5f2f\u5de5", "url": "https://jobs.zhaopin.com/mj155/"}, {"label": "\u5927\u5ba2\u6237\u4ee3\u8868", "intKey": 19000200020000, "value": "19000200020000", "parent": "19000200000000", "pinyin": "dakehudaibiao", "qk": "sj926", "children": [], "root": "19000000000000", "name": "\u5927\u5ba2\u6237\u4ee3\u8868", "url": "https://jobs.zhaopin.com/sj926/"}, {"label": "\u529f\u80fd\u6d4b\u8bd5", "intKey": 20000100050000, "value": "20000100050000", "parent": "20000100000000", "pinyin": "gongnengceshi", "qk": "mj534", "children": [], "root": "20000000000000", "name": "\u529f\u80fd\u6d4b\u8bd5", "url": "https://jobs.zhaopin.com/mj534/"}, {"label": "\u5e02\u573a\u603b\u76d1", "intKey": 16000500260000, "value": "16000500260000", "parent": "16000500000000", "pinyin": "shichangzongjian", "qk": "sj158", "children": [], "root": "16000000000000", "name": "\u5e02\u573a\u603b\u76d1", "url": "https://jobs.zhaopin.com/sj158/"}, {"label": "\u6c7d\u8f66\u552e\u540e\u670d\u52a1", "intKey": 13000100140000, "value": "13000100140000", "parent": "13000100000000", "pinyin": "qicheshouhoufuwu", "qk": "sj581", "children": [], "root": "13000000000000", "name": "\u6c7d\u8f66\u552e\u540e\u670d\u52a1", "url": "https://jobs.zhaopin.com/sj581/"}, {"label": "CIO", "intKey": 3000200040000, "value": "3000200040000", "parent": "3000200000000", "pinyin": "CIO", "qk": "mj415", "children": [], "root": "3000000000000", "name": "CIO", "url": "https://jobs.zhaopin.com/mj415/"}, {"label": "\u751f\u4ea7\u603b\u76d1", "intKey": 15000200170000, "value": "15000200170000", "parent": "15000200000000", "pinyin": "shengchanzongjian", "qk": "sj869", "children": [], "root": "15000000000000", "name": "\u751f\u4ea7\u603b\u76d1", "url": "https://jobs.zhaopin.com/sj869/"}, {"label": "\u9505\u7089\u5de5", "intKey": 7000400090000, "value": "7000400090000", "parent": "7000400000000", "pinyin": "guolugong", "qk": "sj3035", "children": [], "root": "7000000000000", "name": "\u9505\u7089\u5de5", "url": "https://jobs.zhaopin.com/sj3035/"}, {"label": "\u6a61\u80f6\u5de5\u7a0b\u5e08", "intKey": 15000300500000, "value": "15000300500000", "parent": "15000300000000", "pinyin": "xiangjiaogongchengshi", "qk": "sj2006", "children": [], "root": "15000000000000", "name": "\u6a61\u80f6\u5de5\u7a0b\u5e08", "url": "https://jobs.zhaopin.com/sj2006/"}, {"label": "\u623f\u5730\u4ea7\u9879\u76ee\u914d\u5957\u5de5\u7a0b\u5e08", "intKey": 7000200060000, "value": "7000200060000", "parent": "7000200000000", "pinyin": "fangdichanxiangmupeitaogongchengshi", "qk": "sj711", "children": [], "root": "7000000000000", "name": "\u623f\u5730\u4ea7\u9879\u76ee\u914d\u5957\u5de5\u7a0b\u5e08", "url": "https://jobs.zhaopin.com/sj711/"}, {"label": "\u8d44\u4ea7\u8bc4\u4f30", "intKey": 12000200200000, "value": "12000200200000", "parent": "12000200000000", "pinyin": "zichanpinggu", "qk": "sj579", "children": [], "root": "12000000000000", "name": "\u8d44\u4ea7\u8bc4\u4f30", "url": "https://jobs.zhaopin.com/sj579/"}, {"label": "\u73af\u8bc4\u6280\u672f\u5458", "intKey": 7000300190000, "value": "7000300190000", "parent": "7000300000000", "pinyin": "huanpingjishuyuan", "qk": "mj389", "children": [], "root": "7000000000000", "name": "\u73af\u8bc4\u6280\u672f\u5458", "url": "https://jobs.zhaopin.com/mj389/"}, {"label": "\u751f\u4ea7\u6280\u672f\u5458", "intKey": 15000300450000, "value": "15000300450000", "parent": "15000300000000", "pinyin": "shengchanjishuyuan", "qk": "mj179", "children": [], "root": "15000000000000", "name": "\u751f\u4ea7\u6280\u672f\u5458", "url": "https://jobs.zhaopin.com/mj179/"}], "companyList": [{"companyName": "\u798f\u5dde\u6734\u6734\u7535\u5b50\u5546\u52a1\u6709\u9650\u516c\u53f8", "url": "http://special.zhaopin.com/2018/fz/11010/fzpp040255", "cityName": "\u798f\u5dde", "name": "\u798f\u5dde\u6734\u6734\u7535\u5b50\u5546\u52a1\u6709\u9650\u516c\u53f8"}, {"companyName": "\u6cb3\u5357\u771f\u4e8c\u4e92\u8054\u7f51\u79d1\u6280\u6709\u9650\u516c\u53f8", "url": "http://company.zhaopin.com/CZ683658720.htm", "cityName": "\u90d1\u5dde", "name": "\u6cb3\u5357\u771f\u4e8c\u4e92\u8054\u7f51\u79d1\u6280\u6709\u9650\u516c\u53f8"}, {"companyName": "\u9752\u5c9b\u6d77\u5c14\u5bb6\u5c45\u96c6\u6210\u80a1\u4efd\u6709\u9650\u516c\u53f8", "url": "http://company.zhaopin.com/CZ489505120.htm", "cityName": "\u9752\u5c9b", "name": "\u9752\u5c9b\u6d77\u5c14\u5bb6\u5c45\u96c6\u6210\u80a1\u4efd\u6709\u9650\u516c\u53f8"}, {"companyName": "\u8d1d\u58f3\u627e\u623f\uff08\u5317\u4eac\uff09\u79d1\u6280\u6709\u9650\u516c\u53f8", "url": "http://company.zhaopin.com/CZ300255130.htm", "cityName": "\u5317\u4eac", "name": "\u8d1d\u58f3\u627e\u623f\uff08\u5317\u4eac\uff09\u79d1\u6280\u6709\u9650\u516c\u53f8"}, {"companyName": "\u5e7f\u897f\u4e1c\u5448\u9152\u5e97\u7ba1\u7406\u6709\u9650\u516c\u53f8", "url": "http://special.zhaopin.com/2017/gz/11153/gxdc030321", "cityName": "\u5357\u5b81", "name": "\u5e7f\u897f\u4e1c\u5448\u9152\u5e97\u7ba1\u7406\u6709\u9650\u516c\u53f8"}, {"companyName": "\u6c5f\u897f\u6b63\u90a6\u79d1\u6280\u80a1\u4efd\u6709\u9650\u516c\u53f8", "url": "http://company.zhaopin.com/CZ202974310.htm", "cityName": "\u5357\u660c", "name": "\u6c5f\u897f\u6b63\u90a6\u79d1\u6280\u80a1\u4efd\u6709\u9650\u516c\u53f8"}, {"companyName": "\u9526\u521b\u79d1\u6280\u80a1\u4efd\u6709\u9650\u516c\u53f8", "url": "http://company.zhaopin.com/CZ120917160.htm", "cityName": "\u5357\u4eac", "name": "\u9526\u521b\u79d1\u6280\u80a1\u4efd\u6709\u9650\u516c\u53f8"}, {"companyName": "\u91d1\u8776\u8f6f\u4ef6\uff08\u4e2d\u56fd\uff09\u6709\u9650\u516c\u53f8", "url": "http://company.zhaopin.com/CZ000152470.htm", "cityName": "\u6df1\u5733", "name": "\u91d1\u8776\u8f6f\u4ef6\uff08\u4e2d\u56fd\uff09\u6709\u9650\u516c\u53f8"}, {"companyName": "\u6df1\u5733\u5e02\u62d3\u4fdd\u8f6f\u4ef6\u6709\u9650\u516c\u53f8", "url": "http://company.zhaopin.com/CZ157088920.htm", "cityName": "\u6df1\u5733", "name": "\u6df1\u5733\u5e02\u62d3\u4fdd\u8f6f\u4ef6\u6709\u9650\u516c\u53f8"}, {"companyName": "\u4e5d\u5dde\u901a\u533b\u836f\u96c6\u56e2\u80a1\u4efd\u6709\u9650\u516c\u53f8", "url": "http://company.zhaopin.com/CC121098980.htm", "cityName": "\u6b66\u6c49", "name": "\u4e5d\u5dde\u901a\u533b\u836f\u96c6\u56e2\u80a1\u4efd\u6709\u9650\u516c\u53f8"}, {"companyName": "\u73e0\u6d77\u6a2a\u7434\u65b0\u533a\u4e09\u6c5f\u4eba\u529b\u8d44\u6e90\u7efc\u5408\u670d\u52a1\u4e2d\u5fc3\u6709\u9650\u516c\u53f8", "url": "http://company.zhaopin.com/CZ593293920.htm", "cityName": "\u73e0\u6d77", "name": "\u73e0\u6d77\u6a2a\u7434\u65b0\u533a\u4e09\u6c5f\u4eba\u529b\u8d44\u6e90\u7efc\u5408\u670d\u52a1\u4e2d\u5fc3\u6709\u9650\u516c\u53f8"}, {"companyName": "\u5a01\u9ad8\u96c6\u56e2\u6709\u9650\u516c\u53f8", "url": "http://company.zhaopin.com/CZ000616790.htm", "cityName": "\u5a01\u6d77", "name": "\u5a01\u9ad8\u96c6\u56e2\u6709\u9650\u516c\u53f8"}, {"companyName": "\u4e0a\u6d77\u8f7b\u8f7b\u4fe1\u606f\u79d1\u6280\u6709\u9650\u516c\u53f8", "url": "http://company.zhaopin.com/CZ223985880.htm", "cityName": "\u4e0a\u6d77", "name": "\u4e0a\u6d77\u8f7b\u8f7b\u4fe1\u606f\u79d1\u6280\u6709\u9650\u516c\u53f8"}, {"companyName": "\u4e0a\u6d77\u4e16\u8302\u6295\u8d44\u7ba1\u7406\u6709\u9650\u516c\u53f8", "url": "http://company.zhaopin.com/CZ352490210.htm", "cityName": "\u4e0a\u6d77", "name": "\u4e0a\u6d77\u4e16\u8302\u6295\u8d44\u7ba1\u7406\u6709\u9650\u516c\u53f8"}, {"companyName": "\u5e7f\u5dde\u901f\u9053\u4fe1\u606f\u79d1\u6280\u6709\u9650\u516c\u53f8", "url": "http://special.zhaopin.com/pagepublish/20219483/index.html", "cityName": "\u5e7f\u5dde", "name": "\u5e7f\u5dde\u901f\u9053\u4fe1\u606f\u79d1\u6280\u6709\u9650\u516c\u53f8"}, {"companyName": "\u9752\u5c9b\u91d1\u77f3\u6559\u80b2\u79d1\u6280\u80a1\u4efd\u6709\u9650\u516c\u53f8", "url": "http://company.zhaopin.com/CZ223898110.htm", "cityName": "\u9752\u5c9b", "name": "\u9752\u5c9b\u91d1\u77f3\u6559\u80b2\u79d1\u6280\u80a1\u4efd\u6709\u9650\u516c\u53f8"}, {"companyName": "\u4e0a\u6d77\u534e\u94a6\u4fe1\u606f\u79d1\u6280\u80a1\u4efd\u6709\u9650\u516c\u53f8", "url": "http://company.zhaopin.com/CZ137755790.htm", "cityName": "\u4e0a\u6d77", "name": "\u4e0a\u6d77\u534e\u94a6\u4fe1\u606f\u79d1\u6280\u80a1\u4efd\u6709\u9650\u516c\u53f8"}, {"companyName": "\u5317\u4eac\u94f6\u4fe1\u957f\u8fdc\u79d1\u6280\u80a1\u4efd\u6709\u9650\u516c\u53f8", "url": "http://company.zhaopin.com/P10/CC1208/3949/CC120839499.htm", "cityName": "\u5317\u4eac", "name": "\u5317\u4eac\u94f6\u4fe1\u957f\u8fdc\u79d1\u6280\u80a1\u4efd\u6709\u9650\u516c\u53f8"}, {"companyName": "\u592a\u5e73\u6d0b\u5efa\u8bbe\u96c6\u56e2\u6709\u9650\u516c\u53f8", "url": "http://company.zhaopin.com/CZ120923240.htm", "cityName": "\u4e4c\u9c81\u6728\u9f50", "name": "\u592a\u5e73\u6d0b\u5efa\u8bbe\u96c6\u56e2\u6709\u9650\u516c\u53f8"}, {"companyName": "\u5e7f\u5dde\u5e7f\u7535\u8ba1\u91cf\u68c0\u6d4b\u80a1\u4efd\u6709\u9650\u516c\u53f8", "url": "http://company.zhaopin.com/CZ138044050.htm", "cityName": "\u5e7f\u5dde", "name": "\u5e7f\u5dde\u5e7f\u7535\u8ba1\u91cf\u68c0\u6d4b\u80a1\u4efd\u6709\u9650\u516c\u53f8"}, {"companyName": "\u5e7f\u4e1c\u7f8e\u7684\u5236\u51b7\u8bbe\u5907\u6709\u9650\u516c\u53f8", "url": "http://company.zhaopin.com/CZ270219410.htm", "cityName": "\u4f5b\u5c71", "name": "\u5e7f\u4e1c\u7f8e\u7684\u5236\u51b7\u8bbe\u5907\u6709\u9650\u516c\u53f8"}, {"companyName": "\u957f\u57ce\u6c7d\u8f66\u80a1\u4efd\u6709\u9650\u516c\u53f8", "url": "http://special.zhaopin.com/pagepublish/12034143/index.html", "cityName": "\u4fdd\u5b9a", "name": "\u957f\u57ce\u6c7d\u8f66\u80a1\u4efd\u6709\u9650\u516c\u53f8"}, {"companyName": "\u82cf\u5dde\u91d1\u87b3\u8782\u5efa\u7b51\u88c5\u9970\u80a1\u4efd\u6709\u9650\u516c\u53f8", "url": "http://company.zhaopin.com/CZ132722830.htm", "cityName": "\u82cf\u5dde", "name": "\u82cf\u5dde\u91d1\u87b3\u8782\u5efa\u7b51\u88c5\u9970\u80a1\u4efd\u6709\u9650\u516c\u53f8"}, {"companyName": "\u6df1\u5733\u5e02\u4e9a\u8f89\u9f99\u751f\u7269\u79d1\u6280\u80a1\u4efd\u6709\u9650\u516c\u53f8", "url": "http://special.zhaopin.com/pagepublish/23240931/index.html", "cityName": "\u6df1\u5733", "name": "\u6df1\u5733\u5e02\u4e9a\u8f89\u9f99\u751f\u7269\u79d1\u6280\u80a1\u4efd\u6709\u9650\u516c\u53f8"}, {"companyName": "\u53a6\u95e8\u5efa\u53d1\u96c6\u56e2\u6709\u9650\u516c\u53f8", "url": "http://special.zhaopin.com/2017/shz/xmjf070521", "cityName": "\u53a6\u95e8", "name": "\u53a6\u95e8\u5efa\u53d1\u96c6\u56e2\u6709\u9650\u516c\u53f8"}, {"companyName": "\u6d59\u6c5f\u5927\u534e\u6280\u672f\u80a1\u4efd\u6709\u9650\u516c\u53f8", "url": "http://special.zhaopin.com/hz/2011/dahua121374/jobs-hz.htm", "cityName": "\u676d\u5dde", "name": "\u6d59\u6c5f\u5927\u534e\u6280\u672f\u80a1\u4efd\u6709\u9650\u516c\u53f8"}, {"companyName": "\u5965\u56ed\u96c6\u56e2\uff08\u5e7f\u5dde\uff09\u6709\u9650\u516c\u53f8", "url": "http://company.zhaopin.com/P1/CC1204/9460/CC120494609.htm", "cityName": "\u6df1\u5733", "name": "\u5965\u56ed\u96c6\u56e2\uff08\u5e7f\u5dde\uff09\u6709\u9650\u516c\u53f8"}, {"companyName": "\u6df1\u5733\u5e02\u76db\u8054\u884c\u7f51\u7edc\u79d1\u6280\u6709\u9650\u516c\u53f8", "url": "http://company.zhaopin.com/CZ298754310.htm", "cityName": "\u6df1\u5733", "name": "\u6df1\u5733\u5e02\u76db\u8054\u884c\u7f51\u7edc\u79d1\u6280\u6709\u9650\u516c\u53f8"}, {"companyName": "\u5317\u4eac\u6d77\u6708\u661f\u79d1\u6280\u6709\u9650\u516c\u53f8", "url": "http://company.zhaopin.com/CZ897196420.htm", "cityName": "\u5317\u4eac", "name": "\u5317\u4eac\u6d77\u6708\u661f\u79d1\u6280\u6709\u9650\u516c\u53f8"}, {"companyName": "\u6d77\u601d\u79d1\u533b\u836f\u96c6\u56e2\u80a1\u4efd\u6709\u9650\u516c\u53f8", "url": "http://company.zhaopin.com/CZ472494920.htm", "cityName": "\u6210\u90fd", "name": "\u6d77\u601d\u79d1\u533b\u836f\u96c6\u56e2\u80a1\u4efd\u6709\u9650\u516c\u53f8"}]}}